     2.100          NAVIGATION                              RINEX VERSION / TYPE
fic2rin                                 02/03/2014 00:14:26 PGM / RUN BY / DATE
                                                            END OF HEADER
17 14  2  2 22  0  0.0 -.648330897093D-04 -.329691829393D-11  .000000000000D+00
     .490000000000D+02 -.604687500000D+02  .461769234542D-08 -.189863364827D+01
    -.309757888317D-05  .910539482720D-02  .329874455929D-05  .515373515701D+04
     .792000000000D+05  .176951289177D-06 -.698556914842D+00 -.987201929092D-07
     .967707835133D+00  .319812500000D+03 -.213899266718D+01 -.823391440416D-08
    -.162506769059D-09  .100000000000D+01  .177800000000D+04  .000000000000D+00
     .240000000000D+01  .000000000000D+00 -.102445483208D-07  .490000000000D+02
     .720060000000D+05  .400000000000D+01
18 14  2  2 22  0  0.0  .299685634673D-03  .216004991671D-11  .000000000000D+00
     .790000000000D+02  .862500000000D+02  .561166231969D-08 -.280592272389D+00
     .459887087345D-05  .147038645810D-01  .834092497826D-05  .515366758919D+04
     .792000000000D+05 -.447034835815D-07  .134720231689D+01  .253319740295D-06
     .925876073015D+00  .205343750000D+03 -.206280306122D+01 -.889179895055D-08
     .577881213929D-09  .100000000000D+01  .177800000000D+04  .000000000000D+00
     .240000000000D+01  .000000000000D+00 -.107102096081D-07  .790000000000D+02
     .720060000000D+05  .400000000000D+01
19 14  2  2 22  0  0.0 -.436339061707D-03 -.250111042988D-11  .000000000000D+00
     .710000000000D+02 -.679375000000D+02  .473162566263D-08 -.271744648590D+01
    -.348687171936D-05  .988528155722D-02  .415369868279D-05  .515356635666D+04
     .792000000000D+05 -.465661287308D-07 -.647374971800D+00 -.670552253723D-07
     .964897373471D+00  .303156250000D+03  .402623402378D+00 -.829998858498D-08
    -.185722021782D-09  .100000000000D+01  .177800000000D+04  .000000000000D+00
     .240000000000D+01  .000000000000D+00 -.149011611938D-07  .710000000000D+02
     .720060000000D+05  .400000000000D+01
20 14  2  2 22  0  0.0  .158321112394D-03  .329691829393D-11  .000000000000D+00
     .590000000000D+02  .745312500000D+02  .542236872056D-08  .215616113437D+00
     .366568565369D-05  .595844094642D-02  .947900116444D-05  .515358600616D+04
     .792000000000D+05 -.298023223877D-07  .129398953780D+01  .149011611938D-07
     .926838769664D+00  .179750000000D+03  .130978657049D+01 -.863643117060D-08
     .539665336370D-09  .100000000000D+01  .177800000000D+04  .000000000000D+00
     .240000000000D+01  .000000000000D+00 -.791624188423D-08  .590000000000D+02
     .720060000000D+05  .400000000000D+01
21 14  2  2 22  0  0.0 -.341778621078D-03 -.216004991671D-11  .000000000000D+00
     .650000000000D+02 -.498437500000D+02  .503485257896D-08  .773141060383D+00
    -.248849391937D-05  .210428396240D-01  .123959034681D-04  .515357084656D+04
     .792000000000D+05 -.284984707832D-06  .301417546154D+00  .745058059692D-07
     .932515478441D+00  .132562500000D+03 -.206732986811D+01 -.856285667735D-08
    -.333942481473D-09  .100000000000D+01  .177800000000D+04  .000000000000D+00
     .240000000000D+01  .000000000000D+00 -.111758708954D-07  .650000000000D+02
     .720060000000D+05  .400000000000D+01
22 14  2  2 22  0  0.0  .210796482861D-03  .238742359215D-11  .000000000000D+00
     .110000000000D+02  .880625000000D+02  .557237496893D-08 -.818396394592D+00
     .468268990517D-05  .673990207724D-02  .826828181744D-05  .515373569870D+04
     .792000000000D+05  .130385160446D-07  .134930803678D+01  .162050127983D-06
     .923641780176D+00  .201781250000D+03 -.206492114569D+01 -.872964933922D-08
     .575023952056D-09  .100000000000D+01  .177800000000D+04  .000000000000D+00
     .240000000000D+01  .000000000000D+00 -.172294676304D-07  .110000000000D+02
     .720060000000D+05  .400000000000D+01
23 14  2  2 22  0  0.0  .729598104954D-05 -.329691829393D-11  .000000000000D+00
     .720000000000D+02 -.191875000000D+02  .525843332057D-08 -.304707244563D+01
    -.101700425148D-05  .889085046947D-02  .427290797234D-05  .515359039497D+04
     .792000000000D+05 -.124797224998D-06  .241162365015D+01 -.596046447754D-07
     .952830979383D+00  .296656250000D+03 -.280737379672D+01 -.844606609827D-08
    -.223580741607D-09  .100000000000D+01  .177800000000D+04  .000000000000D+00
     .240000000000D+01  .000000000000D+00 -.200234353542D-07  .720000000000D+02
     .720060000000D+05  .400000000000D+01
24 14  2  2 22  0  0.0 -.226506963372D-04 -.682121026330D-12  .000000000000D+00
     .320000000000D+02 -.139687500000D+02  .441589822560D-08  .263540675392D+01
    -.730156898499D-06  .181464257184D-02  .117924064398D-04  .515363398552D+04
     .792000000000D+05 -.558793544769D-07 -.284520380056D+01  .316649675369D-07
     .957945399505D+00  .151000000000D+03  .161635676866D+00 -.792818738368D-08
    -.303941231801D-09  .100000000000D+01  .177800000000D+04  .000000000000D+00
     .240000000000D+01  .000000000000D+00  .325962901115D-08  .320000000000D+02
     .720060000000D+05  .400000000000D+01
25 14  2  2 22  0  0.0  .125812366605D-04  .204636307899D-11  .000000000000D+00
     .320000000000D+02  .875000000000D+02  .431089385175D-08  .450641192592D+00
     .458210706711D-05  .309369654860D-02  .725872814655D-05  .515366066360D+04
     .792000000000D+05  .931322574615D-08 -.179220170007D+01  .117346644402D-06
     .975101102726D+00  .244468750000D+03  .610487072574D+00 -.814462497061D-08
     .361086469272D-09  .100000000000D+01  .177800000000D+04  .000000000000D+00
     .240000000000D+01  .000000000000D+00  .558793544769D-08  .320000000000D+02
     .720060000000D+05  .400000000000D+01
26 14  2  2 22  0  0.0  .176322180778D-03 -.109139364213D-10  .000000000000D+00
     .220000000000D+02 -.375000000000D+02  .459269130403D-08 -.309451834460D+01
    -.207498669624D-05  .214066659100D-01  .473298132420D-05  .515368142891D+04
     .792000000000D+05  .363215804100D-06  .249761514664D+01 -.288709998131D-06
     .976105498392D+00  .292687500000D+03  .126113063200D+01 -.796247452617D-08
    -.325013538118D-09  .100000000000D+01  .177800000000D+04  .000000000000D+00
     .240000000000D+01  .000000000000D+00 -.605359673500D-08  .220000000000D+02
     .720060000000D+05  .400000000000D+01
27 14  2  2 22  0  0.0 -.172988511622D-04 -.147792889038D-11  .000000000000D+00
     .720000000000D+02 -.517500000000D+02  .480484299814D-08 -.179220016255D+01
    -.260025262833D-05  .707350787707D-03  .358186662197D-05  .515366444969D+04
     .792000000000D+05 -.113621354103D-06 -.743389730515D+00  .540167093277D-07
     .962359544149D+00  .312781250000D+03  .950741097040D-01 -.842320800328D-08
    -.184293390845D-09  .100000000000D+01  .177800000000D+04  .000000000000D+00
     .240000000000D+01  .000000000000D+00  .186264514923D-08  .720000000000D+02
     .720060000000D+05  .400000000000D+01
28 14  2  2 22  0  0.0  .329512171447D-03  .295585778076D-11  .000000000000D+00
     .650000000000D+02  .758750000000D+02  .411981446395D-08 -.104518819713D+01
     .416673719883D-05  .192694074940D-01  .738911330700D-05  .515366226768D+04
     .792000000000D+05 -.182539224625D-06 -.172662166024D+01  .346451997757D-06
     .985445785601D+00  .254281250000D+03 -.172817927008D+01 -.821069915143D-08
     .326799326789D-09  .100000000000D+01  .177800000000D+04  .000000000000D+00
     .240000000000D+01  .000000000000D+00 -.107102096081D-07  .650000000000D+02
     .720060000000D+05  .400000000000D+01
29 14  2  2 22  0  0.0  .508002471179D-03  .272848410532D-11  .000000000000D+00
     .970000000000D+02 -.678125000000D+02  .471376777592D-08  .103937488691D+01
    -.359676778316D-05  .161916157231D-02  .402517616749D-05  .515375608444D+04
     .792000000000D+05  .130385160446D-07 -.689594881195D+00 -.577419996262D-07
     .968416386338D+00  .305687500000D+03 -.101052300004D+01 -.839499254228D-08
    -.270725562521D-09  .100000000000D+01  .177800000000D+04  .000000000000D+00
     .240000000000D+01  .000000000000D+00 -.931322574615D-08  .970000000000D+02
     .720060000000D+05  .400000000000D+01
30 14  2  2 22  0  0.0 -.154253095388D-03  .795807864051D-12  .000000000000D+00
     .440000000000D+02  .824687500000D+02  .545701302078D-08 -.905629832466D+00
     .420957803726D-05  .656444637571D-02  .775232911110D-05  .515375404549D+04
     .792000000000D+05  .115483999252D-06 -.177440589705D+01  .162050127983D-06
     .979878776661D+00  .239875000000D+03  .839895388946D+00 -.811640950961D-08
     .360729311538D-09  .100000000000D+01  .177800000000D+04  .000000000000D+00
     .240000000000D+01  .630000000000D+02 -.190921127796D-07  .440000000000D+02
     .720060000000D+05  .400000000000D+01
31 14  2  2 22  0  0.0  .332929659635D-03  .341060513165D-12  .000000000000D+00
     .130000000000D+02 -.172500000000D+02  .391659171319D-08  .157062674826D+01
    -.733882188797D-06  .823996122926D-02  .121742486954D-04  .515377209854D+04
     .792000000000D+05  .145286321640D-06 -.280685125994D+01  .316649675369D-07
     .979491700241D+00  .148312500000D+03 -.667606044814D+00 -.767424823467D-08
    -.473591155544D-09  .100000000000D+01  .177800000000D+04  .000000000000D+00
     .240000000000D+01  .000000000000D+00 -.130385160446D-07  .130000000000D+02
     .720060000000D+05  .400000000000D+01
32 14  2  2 22  0  0.0 -.492074061185D-03  .602540239925D-11  .000000000000D+00
     .140000000000D+02  .808750000000D+02  .497699302602D-08  .217661649174D+01
     .413693487644D-05  .114917568862D-01  .841729342937D-05  .515351238060D+04
     .792000000000D+05  .465661287308D-07  .143891387866D+01  .245869159698D-06
     .947750336577D+00  .206468750000D+03 -.189745618501D+00 -.834356182855D-08
     .486805991709D-09  .100000000000D+01  .177800000000D+04  .000000000000D+00
     .240000000000D+01  .000000000000D+00 -.325962901115D-08  .140000000000D+02
     .720060000000D+05  .400000000000D+01
